OBJECT_NAME,OBJECT_ID,EPOCH,MEAN_MOTION,ECCENTRICITY,INCLINATION,RA_OF_ASC_NODE,ARG_OF_PERICENTER,MEAN_ANOMALY,EPHEMERIS_TYPE,CLASSIFICATION_TYPE,NORAD_CAT_ID,ELEMENT_SET_NO,REV_AT_EPOCH,BSTAR,MEAN_MOTION_DOT,MEAN_MOTION_DDOT
GLOBALSTAR M069,2007-020C,2026-07-05T01:50:36.467808,12.23471969,.00019162,51.9996,201.4915,187.7184,207.7512,0,U,31573,999,88099,.19458798E-3,-.71E-6,0
GLOBALSTAR M072,2007-020D,2026-07-05T00:30:58.038048,11.91658598,.00015978,51.9942,52.7663,14.4867,133.2616,0,U,31574,999,87710,.19891453E-3,-.7E-6,0
GLOBALSTAR M066,2007-048C,2026-07-04T12:51:37.334592,12.30387894,.00057133,51.9612,8.1104,79.8467,314.3397,0,U,32265,999,86236,-.18207073E-4,-.97E-6,0
GLOBALSTAR M079,2010-054A,2026-07-05T01:13:10.112736,12.62266452,.00010504,52.0046,54.2911,60.4707,86.8626,0,U,37188,999,72480,.84038979E-4,-.89E-6,0
GLOBALSTAR M074,2010-054B,2026-07-05T01:56:37.124736,12.62261935,.00008235,52.0026,53.4614,77.2991,87.3477,0,U,37189,999,72541,.78083926E-4,-.9E-6,0
GLOBALSTAR M076,2010-054C,2026-07-05T00:35:09.724704,12.62262063,.00010434,52.0039,53.8386,73.5085,73.8647,0,U,37190,999,72512,.76800156E-4,-.9E-6,0
GLOBALSTAR M077,2010-054D,2026-07-04T08:33:03.404160,11.67547948,.00024411,51.9935,135.7168,203.9150,325.8394,0,U,37191,999,72314,.16519171E-3,-.69E-6,0
GLOBALSTAR M075,2010-054E,2026-07-05T02:45:22.826592,12.62267688,.0000575,51.9943,95.6069,49.0300,89.7650,0,U,37192,999,72420,.19077942E-3,-.7E-6,0
GLOBALSTAR M073,2010-054F,2026-07-04T18:30:01.537632,12.62266821,.00011129,52.0073,10.7684,80.9165,292.3319,0,U,37193,999,72615,.33232932E-4,-.98E-6,0
GLOBALSTAR M083,2011-033A,2026-07-04T15:00:24.027840,12.62263814,.00009254,51.9877,319.4166,93.4041,279.3564,0,U,37739,999,69515,.121692E-3,-.82E-6,0
GLOBALSTAR M088,2011-033B,2026-07-05T01:49:28.259328,12.62269264,.00002771,52.0190,224.5162,153.3301,227.2444,0,U,37740,999,69075,.39619079E-4,-.97E-6,0
GLOBALSTAR M091,2011-033C,2026-07-05T00:17:10.401216,12.62264129,.00001555,51.9966,187.6488,355.4248,34.4954,0,U,37741,999,69153,-.52953539E-4,-.113E-5,0
GLOBALSTAR M085,2011-033D,2026-07-04T22:07:00.091776,12.62264211,.00005345,52.0109,139.2306,17.4911,21.4946,0,U,37742,999,69203,.58064812E-4,-.93E-6,0
GLOBALSTAR M081,2011-033E,2026-07-05T06:55:34.360032,12.62265328,.00004459,51.9941,140.5290,42.0353,105.5250,0,U,37743,999,69222,.72301026E-4,-.91E-6,0
GLOBALSTAR M089,2011-033F,2026-07-05T04:04:40.848672,12.62267539,.00005946,51.9929,95.0463,80.4983,68.5401,0,U,37744,999,69305,.14810459E-3,-.77E-6,0
GLOBALSTAR M084,2011-080A,2026-07-04T16:16:48.444672,12.62267759,.00010375,52.0027,324.0335,114.2678,259.7855,0,U,38040,999,67097,.93908709E-4,-.87E-6,0
GLOBALSTAR M080,2011-080B,2026-07-04T15:35:30.382944,12.62265472,.00004108,52.0081,325.8451,82.4452,291.2697,0,U,38041,999,67109,.51038687E-4,-.95E-6,0
GLOBALSTAR M082,2011-080C,2026-07-04T16:45:23.222016,12.62263928,.00003311,52.0081,281.2010,113.3798,50.7180,0,U,38042,999,67180,.13367264E-3,-.8E-6,0
GLOBALSTAR M092,2011-080D,2026-07-04T23:44:10.307616,12.62267507,.00008483,52.0098,10.7127,89.0137,76.5019,0,U,38043,999,67029,.12939209E-3,-.81E-6,0
GLOBALSTAR M090,2011-080E,2026-07-04T05:13:03.666720,12.62252830,.00005358,52.0126,276.6260,105.7516,271.4525,0,U,38044,999,67186,.16687548E-3,-.74E-6,0
GLOBALSTAR M086,2011-080F,2026-07-04T13:18:50.265216,12.62287673,.00016543,51.9898,275.5000,96.0259,277.4929,0,U,38045,999,67185,.24319981E-3,-.6E-6,0
GLOBALSTAR M097,2013-005A,2026-07-04T17:48:10.395072,12.62271324,.00001997,52.0014,189.8984,41.7022,318.3860,0,U,39072,999,61912,-.44980935E-4,-.112E-5,0
GLOBALSTAR M093,2013-005B,2026-07-05T00:45:39.888288,12.62266163,.00003949,52.0074,182.3687,32.9519,327.1373,0,U,39073,999,61911,-.44296883E-4,-.112E-5,0
GLOBALSTAR M094,2013-005C,2026-07-05T04:33:30.075552,12.62268565,.00008372,51.9958,95.9861,44.0249,316.0685,0,U,39074,999,62074,.13342186E-3,-.8E-6,0
GLOBALSTAR M096,2013-005D,2026-07-04T21:16:52.689216,12.62265597,.00004924,52.0049,145.7236,22.9871,337.1018,0,U,39075,999,61962,.9722409E-5,-.102E-5,0
GLOBALSTAR M078,2013-005E,2026-07-05T02:20:12.444864,12.62260025,.00006144,51.9850,229.0702,306.0953,53.9857,0,U,39076,999,61827,.60824641E-4,-.93E-6,0
GLOBALSTAR M095,2013-005F,2026-07-04T19:22:33.457152,12.62263922,.00001715,52.0059,227.5822,0.2575,359.8291,0,U,39077,999,61809,.27670098E-4,-.99E-6,0
GLOBALSTAR M087,2022-064A,2026-07-04T23:29:33.246528,12.62269307,.00009468,52.0011,8.2871,70.5591,289.5378,0,U,52888,999,19338,.9202718E-5,-.102E-5,0
